[{"OBJECT_NAME":"IRIDIUM 111","OBJECT_ID":"2017-003K","EPOCH":"2026-03-09T16:49:02.226144","MEAN_MOTION":14.34218028,"ECCENTRICITY":0.00021015,"INCLINATION":86.3976,"RA_OF_ASC_NODE":129.9805,"ARG_OF_PERICENTER":94.2487,"MEAN_ANOMALY":265.8949,"EPHEMERIS_TYPE":0,"CLASSIFICATION_TYPE":"U","NORAD_CAT_ID":41926,"ELEMENT_SET_NO":999,"REV_AT_EPOCH":47899,"BSTAR":1.777394e-5,"MEAN_MOTION_DOT":7.0e-7,"MEAN_MOTION_DDOT":0},{"OBJECT_NAME":"COSMOS 923","OBJECT_ID":"1977-059A","EPOCH":"2026-03-09T16:52:02.955072","MEAN_MOTION":14.32871357,"ECCENTRICITY":0.00122322,"INCLINATION":74.0488,"RA_OF_ASC_NODE":204.8264,"ARG_OF_PERICENTER":153.7299,"MEAN_ANOMALY":206.4476,"EPHEMERIS_TYPE":0,"CLASSIFICATION_TYPE":"U","NORAD_CAT_ID":10120,"ELEMENT_SET_NO":999,"REV_AT_EPOCH":54161,"BSTAR":9.6280583e-5,"MEAN_MOTION_DOT":2.37e-6,"MEAN_MOTION_DDOT":0}]
